NORAD_CAT_ID,OBJECT_NAME,OBJECT_TYPE,EPOCH,MEAN_MOTION,ECCENTRICITY,INCLINATION,RA_OF_ASC_NODE,ARG_OF_PERICENTER,MEAN_ANOMALY,BSTAR,MEAN_MOTION_DOT,MEAN_MOTION_DDOT,TLE_LINE0,TLE_LINE1,TLE_LINE2,SEMIMAJOR_AXIS,PERIOD,APOGEE,PERIGEE,DECAYED
51755.0,STARLINK-3460,PAYLOAD,2022-12-03 05:45:14,15.0883283,0.0003217,53.2171,262.2451,35.8815,324.2393,7.9479e-05,9.76e-06,0.0,0 STARLINK-3460,1 51755U 22016AT  22337.23975047  .00000976  00000-0  79479-4 0  9990,2 51755  53.2171 262.2451 0003217  35.8815 324.2393 15.08832830 44797,6917.901999999999,95.438,541.993,537.5419999999998,0.0
51755.0,STARLINK-3460,PAYLOAD,2022-12-03 12:06:47,15.08830684,0.0003219,53.2168,261.0555,36.2572,323.8638,-1.2371e-05,-4.86e-06,0.0,0 STARLINK-3460,1 51755U 22016AT  22337.50471495 -.00000486  00000-0 -12371-4 0  9994,2 51755  53.2168 261.0555 0003219  36.2572 323.8638 15.08830684 43726,6917.909000000002,95.438,542.001,537.547,0.0
51755.0,STARLINK-3460,PAYLOAD,2022-12-04 04:00:38,15.08840311,0.0003249,53.2169,258.0814,36.0255,324.0956,0.0001063,1.404e-05,0.0,0 STARLINK-3460,1 51755U 22016AT  22338.16710708  .00001404  00000-0  10630-3 0  9994,2 51755  53.2169 258.0814 0003249  36.0255 324.0956 15.08840311 44938,6917.879,95.438,541.992,537.497,0.0
51755.0,STARLINK-3460,PAYLOAD,2022-12-04 11:57:33,15.08843471,0.0003253,53.2162,256.5948,35.9908,324.1303,6.8667e-05,8.04e-06,0.0,0 STARLINK-3460,1 51755U 22016AT  22338.49830565  .00000804  00000-0  68667-4 0  9991,2 51755  53.2162 256.5948 0003253  35.9908 324.1303 15.08843471 43879,6917.87,95.437,541.985,537.484,0.0
51755.0,STARLINK-3460,PAYLOAD,2022-12-05 11:48:20,15.08842111,0.0003224,53.2162,252.1343,37.0131,323.1083,0.00016349,2.315e-05,0.0,0 STARLINK-3460,1 51755U 22016AT  22339.49190325  .00002315  00000-0  16349-3 0  9993,2 51755  53.2162 252.1343 0003224  37.0131 323.1083 15.08842111 45134,6917.874,95.437,541.969,537.509,0.0
51755.0,STARLINK-3460,PAYLOAD,2022-12-05 18:09:52,15.08845571,0.0003062,53.2161,250.9443,33.9919,326.1269,0.00016325,2.311e-05,0.0,0 STARLINK-3460,1 51755U 22016AT  22339.75685946  .00002311  00000-0  16325-3 0  9990,2 51755  53.2161 250.9443 0003062  33.9919 326.1269 15.08845571 44062,6917.863,95.437,541.847,537.61,0.0
51755.0,STARLINK-3460,PAYLOAD,2022-12-06 11:39:07,15.08843077,0.0003362,53.2162,247.6745,36.5794,323.5427,1.6403e-05,-2.8e-07,0.0,0 STARLINK-3460,1 51755U 22016AT  22340.48550268 -.00000028  00000-0  16403-4 0  9992,2 51755  53.2162 247.6745 0003362  36.5794 323.5427 15.08843077 44172,6917.871,95.437,542.062,537.41,0.0
51755.0,STARLINK-3460,PAYLOAD,2022-12-06 18:00:40,15.08833888,0.0002933,53.2168,246.4858,40.2912,319.8297,1.8609e-08,-2.88e-06,0.0,0 STARLINK-3460,1 51755U 22016AT  22340.75046912 -.00000288  00000-0  18609-7 0  9999,2 51755  53.2168 246.4858 0002933  40.2912 319.8297 15.08833888 44214,6917.899,95.438,541.793,537.735,0.0
51755.0,STARLINK-3460,PAYLOAD,2022-12-07 03:32:59,15.08831615,0.0003109,53.2157,244.6999,38.6266,321.4948,-0.00012766,-2.32e-05,0.0,0 STARLINK-3460,1 51755U 22016AT  22341.14791651 -.00002320  00000-0 -12766-3 0  9994,2 51755  53.2157 244.6999 0003109  38.6266 321.4948 15.08831615 45384,6917.906,95.438,541.922,537.62,0.0
51755.0,STARLINK-3460,PAYLOAD,2022-12-07 17:51:27,15.08839744,0.0002909,53.2162,242.0237,37.6711,322.4484,-6.0735e-06,-3.85e-06,0.0,0 STARLINK-3460,1 51755U 22016AT  22341.74406892 -.00000385  00000-0 -60735-5 0  9990,2 51755  53.2162 242.0237 0002909  37.6711 322.4484 15.08839744 45475,6917.880999999999,95.438,541.759,537.734,0.0
51755.0,STARLINK-3460,PAYLOAD,2022-12-08 03:23:45,15.08852539,0.0003129,53.2163,240.241,37.5336,322.5874,9.5775e-05,1.236e-05,0.0,0 STARLINK-3460,1 51755U 22016AT  22342.14149966  .00001236  00000-0  95775-4 0  9996,2 51755  53.2163 240.2410 0003129  37.5336 322.5874 15.08852539 45534,6917.842,95.437,541.872,537.5419999999998,0.0
51755.0,STARLINK-3460,PAYLOAD,2022-12-09 00:03:46,15.08849955,0.0003088,53.2155,236.3753,39.8587,320.2631,0.00037486,5.684e-05,0.0,0 STARLINK-3460,1 51755U 22016AT  22343.00262210  .00005684  00000-0  37486-3 0  9995,2 51755  53.2155 236.3753 0003088  39.8587 320.2631 15.08849955 45666,6917.85,95.437,541.851,537.5790000000002,0.0
51755.0,STARLINK-3460,PAYLOAD,2022-12-09 20:43:49,15.08804997,0.0003136,53.2154,232.5105,30.2679,329.8494,-0.00055881,-9.163e-05,0.0,0 STARLINK-3460,1 51755U 22016AT  22343.86376562 -.00009163  00000-0 -55881-3 0  9992,2 51755  53.2154 232.5105 0003136  30.2679 329.8494 15.08804997 45798,6917.986999999999,95.44,542.0219999999998,537.683,0.0
51755.0,STARLINK-3460,PAYLOAD,2022-12-10 01:29:58,15.08813623,0.0003123,53.2156,231.6154,32.0849,328.0333,-0.00028812,-4.868e-05,0.0,0 STARLINK-3460,1 51755U 22016AT  22344.06248470 -.00004868  00000-0 -28812-3 0  9992,2 51755  53.2156 231.6154 0003123  32.0849 328.0333 15.08813623 45822,6917.9609999999975,95.439,541.986,537.6659999999998,0.0
51755.0,STARLINK-3460,PAYLOAD,2022-12-11 01:20:45,15.08841615,0.0002495,53.2149,227.1571,36.3433,323.7729,6.9014e-05,8.1e-06,0.0,0 STARLINK-3460,1 51755U 22016AT  22345.05607834  .00000810  00000-0  69014-4 0  9996,2 51755  53.2149 227.1571 0002495  36.3433 323.7729 15.08841615 45973,6917.875,95.437,541.466,538.014,0.0
51755.0,STARLINK-3460,PAYLOAD,2022-12-11 20:25:23,15.08835911,0.0003143,53.2147,223.5877,32.078,328.0403,0.00051874,7.976e-05,0.0,0 STARLINK-3460,1 51755U 22016AT  22345.85096752  .00007976  00000-0  51874-3 0  9999,2 51755  53.2147 223.5877 0003143  32.0780 328.0403 15.08835911 46092,6917.893,95.438,541.932,537.5840000000002,0.0
51755.0,STARLINK-3460,PAYLOAD,2022-12-12 01:11:32,15.08843326,0.0002963,53.214,222.6949,30.6599,329.4566,0.00044298,6.77e-05,0.0,0 STARLINK-3460,1 51755U 22016AT  22346.04968547  .00006770  00000-0  44298-3 0  9994,2 51755  53.2140 222.6949 0002963  30.6599 329.4566 15.08843326 45011,6917.87,95.437,541.785,537.685,0.0
51755.0,STARLINK-3460,PAYLOAD,2022-12-12 15:30:00,15.08847838,0.0002942,53.2136,220.0183,32.449,327.6683,0.00014607,2.037e-05,0.0,0 STARLINK-3460,1 51755U 22016AT  22346.64584072  .00002037  00000-0  14607-3 0  9990,2 51755  53.2136 220.0183 0002942  32.4490 327.6683 15.08847838 45107,6917.856,95.437,541.757,537.686,0.0
51755.0,STARLINK-3460,PAYLOAD,2022-12-13 01:02:19,15.08846605,0.0002946,53.2139,218.2344,32.3426,327.7746,0.00016209,2.293e-05,0.0,0 STARLINK-3460,1 51755U 22016AT  22347.04327982  .00002293  00000-0  16209-3 0  9994,2 51755  53.2139 218.2344 0002946  32.3426 327.7746 15.08846605 46271,6917.86,95.437,541.763,537.687,0.0
51755.0,STARLINK-3460,PAYLOAD,2022-12-13 08:59:15,15.08843544,0.0003057,53.2144,216.7476,32.9292,327.189,1.6646e-05,-2.4e-07,0.0,0 STARLINK-3460,1 51755U 22016AT  22347.37448115 -.00000024  00000-0  16646-4 0  9999,2 51755  53.2144 216.7476 0003057  32.9292 327.1890 15.08843544 45213,6917.87,95.437,541.849,537.62,0.0
51755.0,STARLINK-3460,PAYLOAD,2022-12-13 18:31:33,15.08844808,0.0003114,53.214,214.9638,31.5201,328.5977,6.0397e-05,6.73e-06,0.0,0 STARLINK-3460,1 51755U 22016AT  22347.77191937  .00000673  00000-0  60397-4 0  9991,2 51755  53.2140 214.9638 0003114  31.5201 328.5977 15.08844808 45279,6917.866,95.437,541.885,537.576,0.0
51755.0,STARLINK-3460,PAYLOAD,2022-12-14 08:50:01,15.08858369,0.000332,53.2139,212.2892,32.7652,327.3545,0.00021979,3.213e-05,0.0,0 STARLINK-3460,1 51755U 22016AT  22348.36806946  .00003213  00000-0  21979-3 0  9995,2 51755  53.2139 212.2892 0003320  32.7652 327.3545 15.08858369 46470,6917.824000000001,95.436,541.986,537.393,0.0
51755.0,STARLINK-3460,PAYLOAD,2022-12-14 21:33:06,15.08842776,0.0003015,53.2131,209.9096,29.9197,330.1966,3.6448e-05,2.92e-06,0.0,0 STARLINK-3460,1 51755U 22016AT  22348.89799393  .00000292  00000-0  36448-4 0  9992,2 51755  53.2131 209.9096 0003015  29.9197 330.1966 15.08842776 45444,6917.871999999999,95.437,541.823,537.651,0.0
51755.0,STARLINK-3460,PAYLOAD,2022-12-15 13:26:58,15.08835427,0.0002851,53.2138,206.9345,29.7645,330.3509,-4.823100000000001e-05,-1.056e-05,0.0,0 STARLINK-3460,1 51755U 22016AT  22349.56039723 -.00001056  00000-0 -48231-4 0  9995,2 51755  53.2138 206.9345 0002851  29.7645 330.3509 15.08835427 46652,6917.894,95.438,541.732,537.7869999999998,0.0
51755.0,STARLINK-3460,PAYLOAD,2022-12-15 21:23:54,15.08836324,0.0002816,53.2149,205.4474,30.0869,330.0284,8.944e-06,-1.46e-06,0.0,0 STARLINK-3460,1 51755U 22016AT  22349.89159955 -.00000146  00000-0  89440-5 0  9997,2 51755  53.2149 205.4474 0002816  30.0869 330.0284 15.08836324 45591,6917.892,95.438,541.705,537.809,0.0
51755.0,STARLINK-3460,PAYLOAD,2022-12-16 06:56:12,15.088731400000002,0.0002738,53.2151,203.6632,25.4864,334.6263,-0.00050083,-8.258e-05,0.0,0 STARLINK-3460,1 51755U 22016AT  22350.28902785 -.00008258  00000-0 -50083-3 0  9991,2 51755  53.2151 203.6632 0002738  25.4864 334.6263 15.08873140 46760,6917.779,95.435,541.538,537.75,0.0
51755.0,STARLINK-3460,PAYLOAD,2022-12-16 19:39:18,15.08821706,0.0002685,53.2151,201.2847,27.1202,332.99300000000005,3.6746e-05,2.96e-06,0.0,0 STARLINK-3460,1 51755U 22016AT  22350.81896898  .00000296  00000-0  36746-4 0  9990,2 51755  53.2151 201.2847 0002685  27.1202 332.9930 15.08821706 46840,6917.936,95.439,541.659,537.944,0.0
51755.0,STARLINK-3460,PAYLOAD,2022-12-17 06:47:00,15.0883035,0.0002777,53.215,199.2033,28.6506,331.4639,5.639199999999999e-06,-1.99e-06,0.0,0 STARLINK-3460,1 51755U 22016AT  22351.28264758 -.00000199  00000-0  56392-5 0  9999,2 51755  53.2150 199.2033 0002777  28.6506 331.4639 15.08830350 46910,6917.91,95.438,541.696,537.854,0.0
51755.0,STARLINK-3460,PAYLOAD,2022-12-17 13:08:33,15.08835107,0.0002783,53.2149,198.0135,28.6099,331.5045,2.8955e-05,1.72e-06,0.0,0 STARLINK-3460,1 51755U 22016AT  22351.54760525  .00000172  00000-0  28955-4 0  9994,2 51755  53.2149 198.0135 0002783  28.6099 331.5045 15.08835107 45840,6917.895,95.438,541.686,537.835,0.0
